{
  "norad_id": 57854,
  "name": "STARLINK-30412",
  "history": [
    {
      "epoch": "2026-03-28T17:01:00.884064",
      "apogee_km": 475.995616105065,
      "perigee_km": 474.4460718965365,
      "latitude_deg": -10.161714300996332,
      "longitude_deg": 33.467648959951475,
      "semi_major_axis_km": 6853.3578440008005,
      "eccentricity": 0.00011305,
      "inclination_deg": 53.1597,
      "raan_deg": 195.5163,
      "arg_perigee_deg": 83.9298,
      "mean_anomaly_deg": 276.1832,
      "mean_motion_rev_day": 15.30198066
    }
  ]
}