{"fetched_at":"2026-03-29T16:36:15Z","count":15609,"tles":[{"name":"STARLINK-30412","line1":"1 57854U 23141Q   26087.70903801 -.00000296  00000+0  21424-5 0  9996","line2":"2 57854  53.1597 195.5163 0001130  83.9298 276.1832 15.30198066143247","category":"Starlink"}]}